CCSDS_OMM_VERS = 2.0
CREATION_DATE  = 
ORIGINATOR     = 

OBJECT_NAME    = SL-16 R/B
OBJECT_ID      = 1998-045B
CENTER_NAME    = EARTH
REF_FRAME      = TEME
TIME_SYSTEM    = UTC
MEAN_ELEMENT_THEORY = SGP/SGP4

EPOCH          = 2026-03-17T15:00:29.455488
MEAN_MOTION    = 14.16194370
ECCENTRICITY   = .00072715
INCLINATION    = 71.0120
RA_OF_ASC_NODE = 164.8868
ARG_OF_PERICENTER = 355.6414
MEAN_ANOMALY   = 4.4645

EPHEMERIS_TYPE = 0
CLASSIFICATION_TYPE = U
NORAD_CAT_ID   = 25407
ELEMENT_SET_NO = 999
REV_AT_EPOCH   = 42822
BSTAR          = .12001502E-3
MEAN_MOTION_DOT = .19E-5
MEAN_MOTION_DDOT = 0

CCSDS_OMM_VERS = 2.0
CREATION_DATE  = 
ORIGINATOR     = 

OBJECT_NAME    = ISS (ZARYA)
OBJECT_ID      = 1998-067A
CENTER_NAME    = EARTH
REF_FRAME      = TEME
TIME_SYSTEM    = UTC
MEAN_ELEMENT_THEORY = SGP/SGP4

EPOCH          = 2026-03-17T20:07:47.770176
MEAN_MOTION    = 15.48349303
ECCENTRICITY   = .00062316
INCLINATION    = 51.6336
RA_OF_ASC_NODE = 32.0723
ARG_OF_PERICENTER = 202.9067
MEAN_ANOMALY   = 157.1644

EPHEMERIS_TYPE = 0
CLASSIFICATION_TYPE = U
NORAD_CAT_ID   = 25544
ELEMENT_SET_NO = 999
REV_AT_EPOCH   = 55759
BSTAR          = .1856658E-3
MEAN_MOTION_DOT = .9567E-4
MEAN_MOTION_DDOT = 0

CCSDS_OMM_VERS = 2.0
CREATION_DATE  = 
ORIGINATOR     = 

OBJECT_NAME    = CZ-4B R/B
OBJECT_ID      = 1999-025C
CENTER_NAME    = EARTH
REF_FRAME      = TEME
TIME_SYSTEM    = UTC
MEAN_ELEMENT_THEORY = SGP/SGP4

EPOCH          = 2026-03-17T20:54:15.653664
MEAN_MOTION    = 14.18266957
ECCENTRICITY   = .00363418
INCLINATION    = 98.6609
RA_OF_ASC_NODE = 120.9582
ARG_OF_PERICENTER = 322.7599
MEAN_ANOMALY   = 210.4249

EPHEMERIS_TYPE = 0
CLASSIFICATION_TYPE = U
NORAD_CAT_ID   = 25732
ELEMENT_SET_NO = 999
REV_AT_EPOCH   = 38932
BSTAR          = .39129883E-4
MEAN_MOTION_DOT = .38E-6
MEAN_MOTION_DDOT = 0

CCSDS_OMM_VERS = 2.0
CREATION_DATE  = 
ORIGINATOR     = 

OBJECT_NAME    = OKEAN-O
OBJECT_ID      = 1999-039A
CENTER_NAME    = EARTH
REF_FRAME      = TEME
TIME_SYSTEM    = UTC
MEAN_ELEMENT_THEORY = SGP/SGP4

EPOCH          = 2026-03-17T21:33:35.387136
MEAN_MOTION    = 14.80348674
ECCENTRICITY   = .0001025
INCLINATION    = 97.9424
RA_OF_ASC_NODE = 136.7057
ARG_OF_PERICENTER = 75.0645
MEAN_ANOMALY   = 285.0681

EPHEMERIS_TYPE = 0
CLASSIFICATION_TYPE = U
NORAD_CAT_ID   = 25860
ELEMENT_SET_NO = 999
REV_AT_EPOCH   = 43560
BSTAR          = .85067863E-4
MEAN_MOTION_DOT = .597E-5
MEAN_MOTION_DDOT = 0

CCSDS_OMM_VERS = 2.0
CREATION_DATE  = 
ORIGINATOR     = 

OBJECT_NAME    = SL-16 R/B
OBJECT_ID      = 1999-039B
CENTER_NAME    = EARTH
REF_FRAME      = TEME
TIME_SYSTEM    = UTC
MEAN_ELEMENT_THEORY = SGP/SGP4

EPOCH          = 2026-03-17T14:24:30.236544
MEAN_MOTION    = 14.81742528
ECCENTRICITY   = .00137777
INCLINATION    = 97.9948
RA_OF_ASC_NODE = 135.6846
ARG_OF_PERICENTER = 228.2252
MEAN_ANOMALY   = 131.7784

EPHEMERIS_TYPE = 0
CLASSIFICATION_TYPE = U
NORAD_CAT_ID   = 25861
ELEMENT_SET_NO = 999
REV_AT_EPOCH   = 43803
BSTAR          = .72811796E-4
MEAN_MOTION_DOT = .521E-5
MEAN_MOTION_DDOT = 0

CCSDS_OMM_VERS = 2.0
CREATION_DATE  = 
ORIGINATOR     = 

OBJECT_NAME    = DELTA 2 R/B
OBJECT_ID      = 1999-041E
CENTER_NAME    = EARTH
REF_FRAME      = TEME
TIME_SYSTEM    = UTC
MEAN_ELEMENT_THEORY = SGP/SGP4

EPOCH          = 2026-03-17T12:17:21.114816
MEAN_MOTION    = 14.11860091
ECCENTRICITY   = .05025583
INCLINATION    = 51.7612
RA_OF_ASC_NODE = 270.0340
ARG_OF_PERICENTER = 11.5057
MEAN_ANOMALY   = 349.6876

EPHEMERIS_TYPE = 0
CLASSIFICATION_TYPE = U
NORAD_CAT_ID   = 25876
ELEMENT_SET_NO = 999
REV_AT_EPOCH   = 36413
BSTAR          = .16765064E-3
MEAN_MOTION_DOT = .799E-5
MEAN_MOTION_DDOT = 0

CCSDS_OMM_VERS = 2.0
CREATION_DATE  = 
ORIGINATOR     = 

OBJECT_NAME    = HELIOS 1B
OBJECT_ID      = 1999-064A
CENTER_NAME    = EARTH
REF_FRAME      = TEME
TIME_SYSTEM    = UTC
MEAN_ELEMENT_THEORY = SGP/SGP4

EPOCH          = 2026-03-17T17:13:17.180544
MEAN_MOTION    = 14.87730646
ECCENTRICITY   = .00022869
INCLINATION    = 98.1688
RA_OF_ASC_NODE = 339.1966
ARG_OF_PERICENTER = 63.5634
MEAN_ANOMALY   = 296.5816

EPHEMERIS_TYPE = 0
CLASSIFICATION_TYPE = U
NORAD_CAT_ID   = 25977
ELEMENT_SET_NO = 999
REV_AT_EPOCH   = 68645
BSTAR          = .17676935E-3
MEAN_MOTION_DOT = .1553E-4
MEAN_MOTION_DDOT = 0

CCSDS_OMM_VERS = 2.0
CREATION_DATE  = 
ORIGINATOR     = 

OBJECT_NAME    = TERRA
OBJECT_ID      = 1999-068A
CENTER_NAME    = EARTH
REF_FRAME      = TEME
TIME_SYSTEM    = UTC
MEAN_ELEMENT_THEORY = SGP/SGP4

EPOCH          = 2026-03-17T22:19:51.085632
MEAN_MOTION    = 14.61023404
ECCENTRICITY   = .00031871
INCLINATION    = 97.9576
RA_OF_ASC_NODE = 130.0497
ARG_OF_PERICENTER = 133.5820
MEAN_ANOMALY   = 271.0277

EPHEMERIS_TYPE = 0
CLASSIFICATION_TYPE = U
NORAD_CAT_ID   = 25994
ELEMENT_SET_NO = 999
REV_AT_EPOCH   = 39628
BSTAR          = .84687009E-4
MEAN_MOTION_DOT = .371E-5
MEAN_MOTION_DDOT = 0

CCSDS_OMM_VERS = 2.0
CREATION_DATE  = 
ORIGINATOR     = 

OBJECT_NAME    = SL-16 R/B
OBJECT_ID      = 2000-006B
CENTER_NAME    = EARTH
REF_FRAME      = TEME
TIME_SYSTEM    = UTC
MEAN_ELEMENT_THEORY = SGP/SGP4

EPOCH          = 2026-03-17T17:07:23.774304
MEAN_MOTION    = 14.15823983
ECCENTRICITY   = .00163132
INCLINATION    = 71.0003
RA_OF_ASC_NODE = 80.9643
ARG_OF_PERICENTER = 177.7978
MEAN_ANOMALY   = 182.3220

EPHEMERIS_TYPE = 0
CLASSIFICATION_TYPE = U
NORAD_CAT_ID   = 26070
ELEMENT_SET_NO = 999
REV_AT_EPOCH   = 34969
BSTAR          = -.62280036E-4
MEAN_MOTION_DOT = -.17E-5
MEAN_MOTION_DDOT = 0

CCSDS_OMM_VERS = 2.0
CREATION_DATE  = 
ORIGINATOR     = 

OBJECT_NAME    = TITAN 4B R/B
OBJECT_ID      = 2000-047B
CENTER_NAME    = EARTH
REF_FRAME      = TEME
TIME_SYSTEM    = UTC
MEAN_ELEMENT_THEORY = SGP/SGP4

EPOCH          = 2026-03-17T21:53:42.461664
MEAN_MOTION    = 15.09644051
ECCENTRICITY   = .00388892
INCLINATION    = 67.9913
RA_OF_ASC_NODE = 17.3870
ARG_OF_PERICENTER = 25.6184
MEAN_ANOMALY   = 334.6881

EPHEMERIS_TYPE = 0
CLASSIFICATION_TYPE = U
NORAD_CAT_ID   = 26474
ELEMENT_SET_NO = 999
REV_AT_EPOCH   = 39415
BSTAR          = .21276553E-3
MEAN_MOTION_DOT = .3355E-4
MEAN_MOTION_DDOT = 0

CCSDS_OMM_VERS = 2.0
CREATION_DATE  = 
ORIGINATOR     = 

OBJECT_NAME    = ENVISAT
OBJECT_ID      = 2002-009A
CENTER_NAME    = EARTH
REF_FRAME      = TEME
TIME_SYSTEM    = UTC
MEAN_ELEMENT_THEORY = SGP/SGP4

EPOCH          = 2026-03-17T22:46:05.632320
MEAN_MOTION    = 14.39039875
ECCENTRICITY   = .00013039
INCLINATION    = 98.3742
RA_OF_ASC_NODE = 30.3500
ARG_OF_PERICENTER = 82.4527
MEAN_ANOMALY   = 302.0552

EPHEMERIS_TYPE = 0
CLASSIFICATION_TYPE = U
NORAD_CAT_ID   = 27386
ELEMENT_SET_NO = 999
REV_AT_EPOCH   = 26036
BSTAR          = .44539394E-4
MEAN_MOTION_DOT = .95E-6
MEAN_MOTION_DDOT = 0

CCSDS_OMM_VERS = 2.0
CREATION_DATE  = 
ORIGINATOR     = 

OBJECT_NAME    = IDEFIX & ARIANE 42P R/B
OBJECT_ID      = 2002-021B
CENTER_NAME    = EARTH
REF_FRAME      = TEME
TIME_SYSTEM    = UTC
MEAN_ELEMENT_THEORY = SGP/SGP4

EPOCH          = 2026-03-17T21:16:11.294976
MEAN_MOTION    = 14.31031769
ECCENTRICITY   = .00120531
INCLINATION    = 98.5879
RA_OF_ASC_NODE = 15.3949
ARG_OF_PERICENTER = 158.1125
MEAN_ANOMALY   = 202.0575

EPHEMERIS_TYPE = 0
CLASSIFICATION_TYPE = U
NORAD_CAT_ID   = 27422
ELEMENT_SET_NO = 999
REV_AT_EPOCH   = 24519
BSTAR          = .1070117E-3
MEAN_MOTION_DOT = .238E-5
MEAN_MOTION_DDOT = 0

