SL-16 R/B               
1 25407U 98045B   26076.62534092  .00000190  00000+0  12002-3 0  9993
2 25407  71.0120 164.8868 0007271 355.6414   4.4645 14.16194370428224
ISS (ZARYA)             
1 25544U 98067A   26076.83874734  .00009567  00000+0  18567-3 0  9991
2 25544  51.6336  32.0723 0006231 202.9067 157.1644 15.48349303557590
CZ-4B R/B               
1 25732U 99025C   26076.87101451  .00000038  00000+0  39130-4 0  9992
2 25732  98.6609 120.9582 0036341 322.7599 210.4249 14.18266957389326
OKEAN-O                 
1 25860U 99039A   26076.89832624  .00000597  00000+0  85068-4 0  9995
2 25860  97.9424 136.7057 0001025  75.0645 285.0681 14.80348674435605
SL-16 R/B               
1 25861U 99039B   26076.60034996  .00000521  00000+0  72812-4 0  9991
2 25861  97.9948 135.6846 0013777 228.2252 131.7784 14.81742528438032
DELTA 2 R/B             
1 25876U 99041E   26076.51204994  .00000799  00000+0  16765-3 0  9998
2 25876  51.7612 270.0340 0502558  11.5057 349.6876 14.11860091364133
HELIOS 1B               
1 25977U 99064A   26076.71755996  .00001553  00000+0  17677-3 0  9992
2 25977  98.1688 339.1966 0002286  63.5634 296.5816 14.87730646686456
TERRA                   
1 25994U 99068A   26076.93045238  .00000371  00000+0  84687-4 0  9993
2 25994  97.9576 130.0497 0003187 133.5820 271.0277 14.61023404396288
SL-16 R/B               
1 26070U 00006B   26076.71346961 -.00000170  00000+0 -62280-4 0  9990
2 26070  71.0003  80.9643 0016313 177.7978 182.3220 14.15823983349691
TITAN 4B R/B            
1 26474U 00047B   26076.91229701  .00003355  00000+0  21277-3 0  9993
2 26474  67.9913  17.3870 0038889  25.6184 334.6881 15.09644051394158
ENVISAT                 
1 27386U 02009A   26076.94867630  .00000095  00000+0  44539-4 0  9993
2 27386  98.3742  30.3500 0001303  82.4527 302.0552 14.39039875260360
IDEFIX & ARIANE 42P R/B 
1 27422U 02021B   26076.88624184  .00000238  00000+0  10701-3 0  9998
2 27422  98.5879  15.3949 0012053 158.1125 202.0575 14.31031769245197
